{"spkid": "54054314", "covariance": {"elements": [{"sigma": 2.42940446516515e-06, "name": "e", "title": "eccentricity", "value": ".5746452895848539", "units": null, "label": "e"}, {"name": "q", "sigma": 2.4157580086278e-06, "units": "au", "value": ".4173134494010794", "title": "perihelion distance", "label": "q"}, {"label": "tp", "units": "TDB", "value": "2459397.218070108872", "title": "time of perihelion passage", "sigma": 0.000141156165736653, "name": "tp"}, {"label": "node", "name": "om", "sigma": 0.00160672013678584, "units": "deg", "title": "longitude of the ascending node", "value": "310.8784699782089"}, {"label": "peri", "value": "266.7219415087303", "title": "argument of perihelion", "units": "deg", "sigma": 0.0016868729022072, "name": "w"}, {"units": "deg", "value": "1.125167134997256", "title": "inclination", "sigma": 3.83465841989124e-05, "name": "i", "label": "i"}], "data": [["5.902006055364359E-12", "-5.868706332615481E-12", "3.368531799427619E-10", "2.391199214140494E-9", "-2.698406281209838E-9", "5.751140781097682E-11"], ["-5.868706332615481E-12", "5.835886756249366E-12", "-3.345111709833881E-10", "-2.379196341268029E-9", "2.684787608705547E-9", "-5.723508897675536E-11"], ["3.368531799427619E-10", "-3.345111709833881E-10", "1.992506312547344E-8", "1.348886200901599E-7", "-1.522129153350792E-7", "3.221902463493698E-9"], ["2.391199214140494E-9", "-2.379196341268029E-9", "1.348886200901599E-7", "2.581549597953123E-6", "-2.705509128456958E-6", "6.152174297764247E-8"], ["-2.698406281209838E-9", "2.684787608705547E-9", "-1.522129153350792E-7", "-2.705509128456958E-6", "2.845540188200942E-6", "-6.451225456783364E-8"], ["5.751140781097682E-11", "-5.723508897675536E-11", "3.221902463493698E-9", "6.152174297764247E-8", "-6.451225456783364E-8", "1.470460519724277E-9"]], "labels": ["e", "q", "tp", "node", "peri", "i"], "epoch": "2459224.5"}, "elements": [{"name": "e", "sigma": "2.4283E-6", "title": "eccentricity", "value": ".5746758029465999", "units": null, "label": "e"}, {"label": "a", "units": "au", "value": ".9808356549501476", "title": "semi-major axis", "sigma": "9.0781E-8", "name": "a"}, {"label": "q", "name": "q", "sigma": "2.417E-6", "title": "perihelion distance", "value": ".4171731373830173", "units": "au"}, {"value": "1.123655885444473", "title": "inclination; angle with respect to x-y ecliptic plane", "units": "deg", "name": "i", "sigma": "3.824E-5", "label": "i"}, {"name": "om", "sigma": ".0016115", "value": "310.7375769924739", "title": "longitude of the ascending node", "units": "deg", "label": "node"}, {"label": "peri", "name": "w", "sigma": ".0016908", "units": "deg", "title": "argument of perihelion", "value": "266.856282566121"}, {"sigma": ".00016548", "name": "ma", "title": "mean anomaly", "value": "29.70834022738164", "units": "deg", "label": "M"}, {"sigma": ".0001596", "name": "tp", "title": "time of perihelion passage", "value": "2461171.220161147249", "units": "TDB", "label": "tp"}, {"label": "period", "sigma": "4.9259E-5", "name": "per", "units": "d", "title": "sidereal orbital period", "value": "354.8075020790022"}, {"label": "n", "title": "mean motion", "value": "1.014634690333694", "units": "deg/d", "name": "n", "sigma": "1.4086E-7"}, {"sigma": "1.4295E-7", "name": "ad", "units": "au", "value": "1.544498172517278", "title": "aphelion distance", "label": "Q"}], "epoch": "2461200.5"}